NORAD_CAT_ID,OBJECT_NAME,OBJECT_TYPE,EPOCH,MEAN_MOTION,ECCENTRICITY,INCLINATION,RA_OF_ASC_NODE,ARG_OF_PERICENTER,MEAN_ANOMALY,BSTAR,MEAN_MOTION_DOT,MEAN_MOTION_DDOT,TLE_LINE0,TLE_LINE1,TLE_LINE2,SEMIMAJOR_AXIS,PERIOD,APOGEE,PERIGEE,DECAYED
55790.0,STARLINK-5813,PAYLOAD,2024-07-03 01:50:51,14.98350496,0.0003149,70.0012,314.0949,269.519,90.5608,-0.00032724,-3.997e-05,0.0,0 STARLINK-5813,1 55790U 23028BB  24185.07697928 -.00003997  00000-0 -32724-3 0  9990,2 55790  70.0012 314.0949 0003149 269.5190  90.5608 14.98350496 74959,6950.13,96.106,574.183,569.806,0.0
55790.0,STARLINK-5813,PAYLOAD,2024-07-03 13:03:47,14.98332359,0.0003218,70.0006,312.9164,266.0088,94.0703,7.8385e-06,1e-08,0.0,0 STARLINK-5813,1 55790U 23028BB  24185.54430266  .00000001  00000-0  78385-5 0  9998,2 55790  70.0006 312.9164 0003218 266.0088  94.0703 14.98332359 75025,6950.186,96.107,574.287,569.814,0.0
55790.0,STARLINK-5813,PAYLOAD,2024-07-03 17:52:11,14.98333002,0.0003191,70.0007,312.4115,265.4008,94.6786,2.6556e-05,2.24e-06,0.0,0 STARLINK-5813,1 55790U 23028BB  24185.74458132  .00000224  00000-0  26556-4 0  9991,2 55790  70.0007 312.4115 0003191 265.4008  94.6786 14.98333002 75069,6950.184,96.107,574.266,569.831,0.0
55790.0,STARLINK-5813,PAYLOAD,2024-07-04 13:05:49,14.98323741,0.0003351,70.0002,310.3918,271.1946,88.8829,7.8904e-08,-9.2e-07,0.0,0 STARLINK-5813,1 55790U 23028BB  24186.54570817 -.00000092  00000-0  78904-7 0  9996,2 55790  70.0002 310.3918 0003351 271.1946  88.8829 14.98323741 75179,6950.212,96.107,574.406,569.748,0.0
55790.0,STARLINK-5813,PAYLOAD,2024-07-04 14:41:57,14.98327197,0.0003272,70.0003,310.2225,267.029,93.0494,1.6737e-06,-7.3e-07,0.0,0 STARLINK-5813,1 55790U 23028BB  24186.61246536 -.00000073  00000-0  16737-5 0  9995,2 55790  70.0003 310.2225 0003272 267.0290  93.0494 14.98327197 75195,6950.202,96.107,574.341,569.792,0.0
55790.0,STARLINK-5813,PAYLOAD,2024-07-04 17:54:12,14.983308,0.0003269,70.0005,309.8865,269.0158,91.0627,4.3136e-05,4.22e-06,0.0,0 STARLINK-5813,1 55790U 23028BB  24186.74598198  .00000422  00000-0  43136-4 0  9992,2 55790  70.0005 309.8865 0003269 269.0158  91.0627 14.98330800 75205,6950.19,96.107,574.327,569.783,0.0
55790.0,STARLINK-5813,PAYLOAD,2024-07-05 14:43:57,14.98332142,0.0003371,70.0003,307.6974,269.1292,90.9481,7.2792e-06,-6e-08,0.0,0 STARLINK-5813,1 55790U 23028BB  24187.61386182 -.00000006  00000-0  72792-5 0  9997,2 55790  70.0003 307.6974 0003371 269.1292  90.9481 14.98332142 75346,6950.186,96.107,574.394,569.708,0.0
55790.0,STARLINK-5813,PAYLOAD,2024-07-05 17:56:13,14.98333905,0.0003298,70.0004,307.361,268.4528,91.6253,3.1333e-05,2.81e-06,0.0,0 STARLINK-5813,1 55790U 23028BB  24187.74737992  .00000281  00000-0  31333-4 0  9999,2 55790  70.0004 307.3610 0003298 268.4528  91.6253 14.98333905 75357,6950.181,96.107,574.338,569.754,0.0
55790.0,STARLINK-5813,PAYLOAD,2024-07-06 13:09:50,14.98326795,0.000328,70.0005,305.3409,270.8922,89.1861,2.8922e-05,2.52e-06,0.0,0 STARLINK-5813,1 55790U 23028BB  24188.54850433  .00000252  00000-0  28922-4 0  9992,2 55790  70.0005 305.3409 0003280 270.8922  89.1861 14.98326795 75477,6950.203,96.107,574.347,569.788,0.0
55790.0,STARLINK-5813,PAYLOAD,2024-07-06 14:45:58,14.98331046,0.0003292,70.0004,305.1729,270.5082,89.57,2.6534e-05,2.24e-06,0.0,0 STARLINK-5813,1 55790U 23028BB  24188.61526170  .00000224  00000-0  26534-4 0  9994,2 55790  70.0004 305.1729 0003292 270.5082  89.5700 14.98331046 75499,6950.19,96.107,574.343,569.767,0.0
55790.0,STARLINK-5813,PAYLOAD,2024-07-06 17:58:14,14.98332662,0.0003273,70.0005,304.8361,270.4744,89.604,4.3826e-05,4.3e-06,0.0,0 STARLINK-5813,1 55790U 23028BB  24188.74878007  .00000430  00000-0  43826-4 0  9999,2 55790  70.0005 304.8361 0003273 270.4744  89.6040 14.98332662 75517,6950.185,96.107,574.324,569.775,0.0
55790.0,STARLINK-5813,PAYLOAD,2024-07-07 13:11:51,14.98330376,0.0003213,70.0006,302.8161,271.2613,88.8178,3.5693e-05,3.33e-06,0.0,0 STARLINK-5813,1 55790U 23028BB  24189.54990148  .00000333  00000-0  35693-4 0  9994,2 55790  70.0006 302.8161 0003213 271.2613  88.8178 14.98330376 75638,6950.192,96.107,574.29,569.824,0.0
55790.0,STARLINK-5813,PAYLOAD,2024-07-07 18:00:15,14.98334531,0.0003166,70.0007,302.3116,270.1732,89.9065,5.7194e-05,5.9e-06,0.0,0 STARLINK-5813,1 55790U 23028BB  24189.75017787  .00000590  00000-0  57194-4 0  9991,2 55790  70.0007 302.3116 0003166 270.1732  89.9065 14.98334531 75657,6950.179,96.107,574.244,569.843,0.0
55790.0,STARLINK-5813,PAYLOAD,2024-07-08 13:13:52,14.9832899,0.000314,70.0007,300.2921,267.5592,92.5207,2.8051e-06,-6e-07,0.0,0 STARLINK-5813,1 55790U 23028BB  24190.55130225 -.00000060  00000-0  28051-5 0  9998,2 55790  70.0007 300.2921 0003140 267.5592  92.5207 14.98328990 75777,6950.196,96.107,574.243,569.879,0.0
55790.0,STARLINK-5813,PAYLOAD,2024-07-08 16:26:08,14.98330277,0.0003089,70.0008,299.9553,267.9098,92.1707,1.9745e-05,1.43e-06,0.0,0 STARLINK-5813,1 55790U 23028BB  24190.68482104  .00000143  00000-0  19745-4 0  9998,2 55790  70.0008 299.9553 0003089 267.9098  92.1707 14.98330277 75806,6950.192,96.107,574.204,569.91,0.0
55790.0,STARLINK-5813,PAYLOAD,2024-07-09 13:15:53,14.98334065,0.0003095,70.0007,297.7671,267.4361,92.6444,2.9313e-05,2.57e-06,0.0,0 STARLINK-5813,1 55790U 23028BB  24191.55269677  .00000257  00000-0  29313-4 0  9991,2 55790  70.0007 297.7671 0003095 267.4361  92.6444 14.98334065 75922,6950.18,96.107,574.196,569.894,0.0
55790.0,STARLINK-5813,PAYLOAD,2024-07-09 16:28:09,14.98332543,0.0003117,70.0007,297.4304,266.9925,93.0877,1.1043e-05,3.9e-07,0.0,0 STARLINK-5813,1 55790U 23028BB  24191.68621789  .00000039  00000-0  11043-4 0  9990,2 55790  70.0007 297.4304 0003117 266.9925  93.0877 14.98332543 75954,6950.185,96.107,574.216,569.884,0.0
55790.0,STARLINK-5813,PAYLOAD,2024-07-10 10:05:38,14.98324619,0.0003206,70.0002,295.5785,267.6063,92.4729,-3.6644e-05,-5.3e-06,0.0,0 STARLINK-5813,1 55790U 23028BB  24192.42058453 -.00000530  00000-0 -36644-4 0  9997,2 55790  70.0002 295.5785 0003206 267.6063  92.4729 14.98324619 76057,6950.21,96.107,574.303,569.846,0.0
55790.0,STARLINK-5813,PAYLOAD,2024-07-10 16:30:10,14.9832379,0.0003209,70.0002,294.9049,267.4606,92.6186,-4.0677e-05,-5.78e-06,0.0,0 STARLINK-5813,1 55790U 23028BB  24192.68762590 -.00000578  00000-0 -40677-4 0  9992,2 55790  70.0002 294.9049 0003209 267.4606  92.6186 14.98323790 76101,6950.212,96.107,574.307,569.847,0.0
55790.0,STARLINK-5813,PAYLOAD,2024-07-11 13:19:55,14.9833098,0.0003235,70.0001,292.7163,268.3286,91.7503,2.5808e-05,2.15e-06,0.0,0 STARLINK-5813,1 55790U 23028BB  24193.55549991  .00000215  00000-0  25808-4 0  9992,2 55790  70.0001 292.7163 0003235 268.3286  91.7503 14.98330980 76232,6950.19,96.107,574.303,569.806,0.0
55790.0,STARLINK-5813,PAYLOAD,2024-07-11 16:32:11,14.98333577,0.0003207,70.0002,292.3803,265.4193,94.66,5.9257e-05,6.14e-06,0.0,0 STARLINK-5813,1 55790U 23028BB  24193.68901696  .00000614  00000-0  59257-4 0  9998,2 55790  70.0002 292.3803 0003207 265.4193  94.6600 14.98333577 76240,6950.182,96.107,574.276,569.818,0.0
55790.0,STARLINK-5813,PAYLOAD,2024-07-12 13:21:55,14.98332863,0.0003351,70.0001,290.1914,271.0702,89.0073,0.00011707,1.304e-05,0.0,0 STARLINK-5813,1 55790U 23028BB  24194.55689540  .00001304  00000-0  11707-3 0  9990,2 55790  70.0001 290.1914 0003351 271.0702  89.0073 14.98332863 76381,6950.184,96.107,574.378,569.72,0.0
55790.0,STARLINK-5813,PAYLOAD,2024-07-12 16:34:11,14.98334068,0.0003368,70.0002,289.8549,271.2452,88.8321,0.00012282,1.373e-05,0.0,0 STARLINK-5813,1 55790U 23028BB  24194.69041428  .00001373  00000-0  12282-3 0  9997,2 55790  70.0002 289.8549 0003368 271.2452  88.8321 14.98334068 76396,6950.18,96.107,574.386,569.704,0.0
55790.0,STARLINK-5813,PAYLOAD,2024-07-13 10:11:40,14.98330093,0.000325,70.0005,288.0033,272.3453,87.7334,-2.379e-05,-3.77e-06,0.0,0 STARLINK-5813,1 55790U 23028BB  24195.42478006 -.00000377  00000-0 -23790-4 0  9997,2 55790  70.0005 288.0033 0003250 272.3453  87.7334 14.98330093 76500,6950.193,96.107,574.316,569.799,0.0
55790.0,STARLINK-5813,PAYLOAD,2024-07-13 13:23:57,14.98330336,0.0003249,70.0005,287.6668,272.4526,87.6261,-1.9413e-05,-3.25e-06,0.0,0 STARLINK-5813,1 55790U 23028BB  24195.55829979 -.00000325  00000-0 -19413-4 0  9990,2 55790  70.0005 287.6668 0003249 272.4526  87.6261 14.98330336 76530,6950.192,96.107,574.315,569.799,0.0
55790.0,STARLINK-5813,PAYLOAD,2024-07-13 16:36:12,14.98333559,0.0003239,70.0005,287.3301,272.4145,87.6643,1.5393e-05,9.1e-07,0.0,0 STARLINK-5813,1 55790U 23028BB  24195.69181652  .00000091  00000-0  15393-4 0  9995,2 55790  70.0005 287.3301 0003239 272.4145  87.6643 14.98333559 76553,6950.182,96.107,574.298,569.796,0.0
55790.0,STARLINK-5813,PAYLOAD,2024-07-14 11:49:50,14.98313905,0.0003332,70.0003,285.3112,269.1973,90.8804,0.00027311,3.166e-05,0.0,0 STARLINK-5813,1 55790U 23028BB  24196.49294245  .00003166  00000-0  27311-3 0  9995,2 55790  70.0003 285.3112 0003332 269.1973  90.8804 14.98313905 76665,6950.243,96.108,574.423,569.792,0.0
55790.0,STARLINK-5813,PAYLOAD,2024-07-14 13:25:57,14.98332692,0.0003195,70.0003,285.1428,268.9938,91.0855,-1.4957e-05,-2.71e-06,0.0,0 STARLINK-5813,1 55790U 23028BB  24196.55969664 -.00000271  00000-0 -14957-4 0  9995,2 55790  70.0003 285.1428 0003195 268.9938  91.0855 14.98332692 76683,6950.185,96.107,574.27,569.829,0.0
55790.0,STARLINK-5813,PAYLOAD,2024-07-14 15:02:05,14.98334179,0.0003182,70.0004,284.9744,269.4674,90.6121,2.9951e-06,-5.7e-07,0.0,0 STARLINK-5813,1 55790U 23028BB  24196.62645511 -.00000057  00000-0  29951-5 0  9997,2 55790  70.0004 284.9744 0003182 269.4674  90.6121 14.98334179 76684,6950.18,96.107,574.257,569.833,0.0
55790.0,STARLINK-5813,PAYLOAD,2024-07-14 23:02:45,14.9834889,0.0003286,70.0005,284.1328,271.4052,88.673,-0.00027679,-3.396e-05,0.0,0 STARLINK-5813,1 55790U 23028BB  24196.96025079 -.00003396  00000-0 -27679-3 0  9998,2 55790  70.0005 284.1328 0003286 271.4052  88.6730 14.98348890 76737,6950.134,96.106,574.283,569.716,0.0
